NOAA 15                 
1 25338U 98030A   24212.15961405  .00000431  00000+0  19636-3 0  9998
2 25338  98.5671 238.3865 0010057 192.5509 167.5423 14.26642402363560
NOAA 16                 
1 26536U 00055A   24211.90587433  .00000161  00000+0  10725-3 0  9996
2 26536  98.5291 249.5458 0011593 111.5622 248.6788 14.13607528526612
NOAA 17                 
1 27453U 02032A   24211.95178586  .00000341  00000+0  16280-3 0  9994
2 27453  98.7647 162.5252 0011591 178.9266 181.1940 14.25627608149046
NOAA 18                 
1 28654U 05018A   24212.18267315  .00000346  00000+0  20805-3 0  9993
2 28654  98.8732 288.7895 0013217 303.4572  56.5336 14.13265864989339
NOAA 19                 
1 33591U 09005A   24212.14023751  .00000348  00000+0  21072-3 0  9998
2 33591  99.0445 268.3889 0014148 167.2666 192.8866 14.13060062797691
SUOMI NPP               
1 37849U 11061A   24212.17944814  .00000182  00000+0  10684-3 0  9991
2 37849  98.7222 149.5151 0001819 107.8933 252.2441 14.19536945660963
NOAA 20 (JPSS-1)        
1 43013U 17073A   24212.12596600  .00000169  00000+0  10087-3 0  9993
2 43013  98.7065 149.3295 0002361  93.7576 266.3870 14.19550100346999
NOAA 21 (JPSS-2)        
1 54234U 22150A   24211.87979715  .00000190  00000+0  11082-3 0  9995
2 54234  98.7518 149.2750 0001691  61.5367 298.5979 14.19536405 89038
ISS (ZARYA)             
1 25544U 98067A   24212.23326880  .00022357  00000+0  39127-3 0  9996
2 25544  51.6406 102.0608 0009894 124.2141  21.5799 15.50483309465226
CSS (TIANHE)            
1 48274U 21035A   24211.92426346  .00017477  00000+0  22028-3 0  9994
2 48274  41.4673 182.3482 0001490 315.4802  44.5916 15.59200635185781
ISS (NAUKA)             
1 49044U 21066A   24211.82047882  .00022399  00000+0  39226-3 0  9994
2 49044  51.6384 104.1128 0009828 122.3654 237.8288 15.50464329170901
FREGAT DEB              
1 49271U 11037PF  24211.28720877  .00012145  00000+0  23749-1 0  9994
2 49271  51.6730 226.6978 0993674 217.9251 134.7432 12.19744572140339
CSS (WENTIAN)           
1 53239U 22085A   24211.92426346  .00017477  00000+0  22028-3 0  9997
2 53239  41.4673 182.3482 0001490 315.4802  44.5916 15.59200635183371
CSS (MENGTIAN)          
1 54216U 22143A   24211.92426346  .00017477  00000+0  22028-3 0  9998
2 54216  41.4673 182.3482 0001490 315.4802  44.5916 15.59200635 98057
TIANZHOU-7              
1 58811U 24013A   24211.92426346  .00017477  00000+0  22028-3 0  9991
2 58811  41.4673 182.3482 0001490 315.4802  44.5916 15.59200635183372
PROGRESS-MS 26          
1 58961U 24029A   24211.82047882  .00022399  00000+0  39226-3 0  9994
2 58961  51.6384 104.1128 0009828 122.3654 237.8288 15.50464329 25032
CREW DRAGON 8           
1 59097U 24042A   24211.82047882  .00022399  00000+0  39226-3 0  9990
2 59097  51.6384 104.1128 0009828 122.3654 237.8288 15.50464329 22243
SOYUZ-MS 25             
1 59294U 24055A   24211.82047882  .00022399  00000+0  39226-3 0  9993
2 59294  51.6384 104.1128 0009828 122.3654 237.8288 15.50464329 19552
MICROORBITER-1          
1 59483U 98067WF  24211.91695566  .00304183  00000+0  13762-2 0  9995
2 59483  51.6284  92.6929 0006989 169.4654 190.6496 15.82538302 17203
CURTIS                  
1 59507U 98067WG  24211.95278133  .00146028  00000+0  10797-2 0  9990
2 59507  51.6290  95.2049 0006002 150.4947 209.6390 15.71961017 17182
KASHIWA                 
1 59508U 98067WH  24211.84154450  .00509999  11109-3  15845-2 0  9999
2 59508  51.6225  91.4019 0007883 191.8575 168.2247 15.90994772 17221
1998-067WJ              
1 59559U 98067WJ  24211.91220833  .00130973  00000+0  10504-2 0  9995
2 59559  51.6324  96.4611 0004645 125.3167 234.8265 15.70083718 16037
1998-067WK              
1 59560U 98067WK  24211.95489722  .01843507  27713-2  18936-2 0  9990
2 59560  51.6179  89.1247 0010269 231.8396 128.1693 16.10601116 16052
1998-067WL              
1 59561U 98067WL  24212.13824325  .00049828  00000+0  61048-3 0  9997
2 59561  51.6338  98.7313 0004404 112.8926 247.2532 15.59841873 15996
BURSTCUBE               
1 59562U 98067WM  24211.90975101  .00145681  00000+0  11507-2 0  9999
2 59562  51.6327  96.4496 0006232 145.7689 214.3711 15.70386230 16016
SNOOPI                  
1 59563U 98067WN  24211.93419010  .00107182  00000+0  97219-3 0  9994
2 59563  51.6345  97.3727 0005774 144.5360 215.6021 15.67169642 16006
SHENZHOU-18 (SZ-18)     
1 59591U 24078A   24211.92426346  .00017477  00000+0  22028-3 0  9998
2 59591  41.4673 182.3482 0001490 315.4802  44.5916 15.59200635 13246
1998-067WP              
1 59596U 98067WP  24211.94517179  .00216294  00000+0  12771-2 0  9990
2 59596  51.6294  94.4104 0004977 149.3810 210.7482 15.76944600 16078
1998-067WQ              
1 59597U 98067WQ  24211.93745052  .00222032  00000+0  12954-2 0  9993
2 59597  51.6352  94.3824 0005105 146.9839 213.1481 15.77196809 16044
SZ-17 MODULE            
1 59624U 23164C   24211.91740777  .00044299  00000+0  37296-3 0  9991
2 59624  41.4748 180.5362 0008285 204.9733 155.0709 15.68990570 14240
PROGRESS-MS 27          
1 59913U 24103A   24211.82047882  .00022399  00000+0  39226-3 0  9995
2 59913  51.6384 104.1128 0009828 122.3654 237.8288 15.50464329  9313
STARLINER CFT-1         
1 59968U 24109A   24211.82047882  .00022399  00000+0  39226-3 0  9991
2 59968  51.6384 104.1128 0009828 122.3654 237.8288 15.50464329  7748
